0 IRIDIUM 33 DEB
1 35745U 97051RY  13282.98713145  .00005850  00000-0  26524-2 0  4129
2 35745 086.3829 156.9189 0121997 139.7782 287.3323 14.17881797224961
0 IRIDIUM 33 DEB
1 35745U 97051RY  13285.39803418  .00005532  00000-0  25055-2 0  4136
2 35745 086.3830 155.9333 0122369 132.1364 353.5804 14.17905599225306
0 IRIDIUM 33 DEB
1 35745U 97051RY  13286.93739126  .00005613  00000-0  25407-2 0  4143
2 35745 086.3833 155.3044 0122605 127.1918 291.2672 14.17920345225525
0 IRIDIUM 33 DEB
1 35745U 97051RY  13288.91381081  .00007914  00000-0  35813-2 0  4155
2 35745 086.3834 154.4975 0122976 120.8531 300.0889 14.17948469225808
0 IRIDIUM 33 DEB
1 35745U 97051RY  13290.96152961  .00006793  00000-0  30700-2 0  4161
2 35745 086.3830 153.6614 0123440 114.3337 313.0195 14.17974570226092
0 IRIDIUM 33 DEB
1 35745U 97051RY  13292.38407730  .00006841  00000-0  30896-2 0  4177
2 35745 086.3828 153.0805 0123666 109.8452 014.7282 14.17990620226290
0 IRIDIUM 33 DEB
1 35745U 97051RY  13293.92479289  .00007268  00000-0  32812-2 0  4181
2 35745 086.3824 152.4502 0123768 104.9659 319.7655 14.18008446226515
0 IRIDIUM 33 DEB
1 35745U 97051RY  13295.34764037  .00007993  00000-0  36072-2 0  4195
2 35745 086.3831 151.8694 0123960 100.4287 023.2294 14.18025613226713
